[
  {
    "restaurant_name": "Queen St",
    "address": "611 Queen St",
    "city": "Toronto",
    "province": "ON",
    "postal_code": "M5V 2B7",
    "latitude": 43.6472813,
    "longitude": -79.4024131
  },
  {
    "restaurant_name": "Richmond & Adelaide",
    "address": "120 Adelaide St West",
    "city": "Toronto",
    "province": "ON",
    "postal_code": "M5H 1P9",
    "latitude": 43.649906,
    "longitude": -79.3832441
  },
  {
    "restaurant_name": "Bloor St",
    "address": "2406 Bloor St",
    "city": "Toronto",
    "province": "ON",
    "postal_code": "M6S 1P9",
    "latitude": 43.6498063,
    "longitude": -79.4833185
  },
  {
    "restaurant_name": "Courtney Park",
    "address": "80 Courtneypark Dr E,",
    "city": "Mississauga",
    "province": "ON",
    "postal_code": "L5T 2Y3",
    "latitude": 43.637079,
    "longitude": -79.6915506
  },
  {
    "restaurant_name": "Milton",
    "address": "875 Main St East",
    "city": "Milton",
    "province": "ON",
    "postal_code": "L9T 3Z3",
    "latitude": 43.5274379,
    "longitude": -79.8683365
  },
  {
    "restaurant_name": "Louis St Laurent",
    "address": "9040 Louis St. Laurent Ave, Unit # 2 Building D",
    "city": "Milton",
    "province": "ON",
    "postal_code": "L9E 1X7",
    "latitude": 43.5070132,
    "longitude": -79.8362444
  },
  {
    "restaurant_name": "Dixie",
    "address": "5083 Dixie Rd, Mississauga,",
    "city": "Mississauga",
    "province": "ON",
    "postal_code": "L4W 5K1",
    "latitude": 43.6382366,
    "longitude": -79.6220052
  },
  {
    "restaurant_name": "1166 St Clair",
    "address": "1166 St Clair west",
    "city": "Toronto",
    "province": "ON",
    "postal_code": "M6E 1B3",
    "latitude": 43.6780902,
    "longitude": -79.4432957
  },
  {
    "restaurant_name": "Heartland",
    "address": "5945 Latimer Dr #9,",
    "city": "Mississauga",
    "province": "ON",
    "postal_code": "L5V 0B5",
    "latitude": 43.6088664,
    "longitude": -79.696562
  },
  {
    "restaurant_name": null,
    "address": "6070 Dixie",
    "city": "Mississauga",
    "province": "ON",
    "postal_code": "L5T 1A6",
    "latitude": 43.6568074,
    "longitude": -79.6503127
  },
  {
    "restaurant_name": "Clementine",
    "address": "120 Clementine Dr #5",
    "city": "Brampton",
    "province": "ON",
    "postal_code": "L6Y 0L8",
    "latitude": 43.64439,
    "longitude": -79.75652
  },
  {
    "restaurant_name": null,
    "address": "2763 Danforth Av",
    "city": "Toronto",
    "province": "ON",
    "postal_code": "M4C 1L8",
    "latitude": 43.6889942,
    "longitude": -79.2970845
  },
  {
    "restaurant_name": "Bramalea City Center",
    "address": "25 Peel Centre Dr",
    "city": "Brampton",
    "province": "ON",
    "postal_code": "L6T 3R5",
    "latitude": 43.7157098,
    "longitude": -79.7215288
  },
  {
    "restaurant_name": "Chrysler Dr",
    "address": "470 Chrysler Dr",
    "city": "Brampton",
    "province": "ON",
    "postal_code": "L6Z 0C1",
    "latitude": 43.7471691,
    "longitude": -79.7148345
  },
  {
    "restaurant_name": null,
    "address": "10635 Bramalea Rd #3",
    "city": "Brampton",
    "province": "ON",
    "postal_code": "L6R 3P4",
    "latitude": 43.7560856,
    "longitude": -79.7589517
  },
  {
    "restaurant_name": null,
    "address": "170 Sandalwood Parkway E",
    "city": "Brampton",
    "province": "ON",
    "postal_code": "L6Z 1Y5",
    "latitude": 43.7268107,
    "longitude": -79.7978447
  },
  {
    "restaurant_name": "Yorkdale Mall",
    "address": "3401 Dufferin St",
    "city": "Toronto",
    "province": "ON",
    "postal_code": "M6A 2T9",
    "latitude": 43.7251083,
    "longitude": -79.4528087
  },
  {
    "restaurant_name": null,
    "address": "600 Lakeshore Rd",
    "city": "Mississauga",
    "province": "ON",
    "postal_code": "L5G 1J4",
    "latitude": 43.5683503,
    "longitude": -79.5674503
  },
  {
    "restaurant_name": null,
    "address": "6795 Airport Rd Unit A3",
    "city": "Mississauga",
    "province": "ON",
    "postal_code": "L4V 1E6",
    "latitude": 43.7003115,
    "longitude": -79.6362625
  },
  {
    "restaurant_name": null,
    "address": "1 Kennedy Rd S",
    "city": "Brampton",
    "province": "ON",
    "postal_code": "L6W 3C9",
    "latitude": 43.6945668,
    "longitude": -79.7491973
  },
  {
    "restaurant_name": null,
    "address": "8205 Financial Dr",
    "city": "Brampton",
    "province": "ON",
    "postal_code": "L6Y 1M1",
    "latitude": 43.6356217,
    "longitude": -79.7878219
  },
  {
    "restaurant_name": null,
    "address": "1482 Dundas St E",
    "city": "Mississauga",
    "province": "ON",
    "postal_code": "L4X 1L4",
    "latitude": 43.61118,
    "longitude": -79.58064
  },
  {
    "restaurant_name": null,
    "address": "625 Trunk Rd unit 2 building a,",
    "city": "Sault Ste Marie",
    "province": "ON",
    "postal_code": "P6A 3T2",
    "latitude": 46.5204081,
    "longitude": -84.27487
  },
  {
    "restaurant_name": "YYZ",
    "address": "6301 Silver Dart Dr. Terminal 1, Domestic Post Security",
    "city": "Mississauga",
    "province": "ON",
    "postal_code": "L5P 1B2",
    "latitude": 43.6865298,
    "longitude": -79.6268858
  },
  {
    "restaurant_name": "Square One Mall",
    "address": "100 City Centre Drive Unit 1-830",
    "city": "Mississauga",
    "province": "ON",
    "postal_code": "L5B 2C3",
    "latitude": 43.5932372,
    "longitude": -79.6442672
  },
  {
    "restaurant_name": null,
    "address": "1 Steeles Avenue E",
    "city": "Brampton",
    "province": "ON",
    "postal_code": "L6W 4J4",
    "latitude": 43.6660855,
    "longitude": -79.7324073
  },
  {
    "restaurant_name": null,
    "address": "215 Queens Quay E ,",
    "city": "Toronto",
    "province": "ON",
    "postal_code": "M5A 3Y4",
    "latitude": 43.64514,
    "longitude": -79.36456
  },
  {
    "restaurant_name": "Eaton Center",
    "address": "220 Yonge St Unit F019",
    "city": "Toronto",
    "province": "ON",
    "postal_code": "M5B 2H1",
    "latitude": 43.6544186,
    "longitude": -79.3807186
  },
  {
    "restaurant_name": null,
    "address": "165 East Liberty Street",
    "city": "Toronto",
    "province": "ON",
    "postal_code": "M6K 3P6",
    "latitude": 43.638466,
    "longitude": -79.4171243
  },
  {
    "restaurant_name": null,
    "address": "145 Silver Reign Dr Unit 1103",
    "city": "Toronto",
    "province": "ON",
    "postal_code": "M9W 3W4",
    "latitude": 43.7118926,
    "longitude": -79.5568154
  },
  {
    "restaurant_name": null,
    "address": "505 St Clair Ave West Unit 107",
    "city": "Toronto",
    "province": "ON",
    "postal_code": "MC6 1A1",
    "latitude": 43.6829323,
    "longitude": -79.4184881
  },
  {
    "restaurant_name": null,
    "address": "1317 Barton St E",
    "city": "Hamilton",
    "province": "ON",
    "postal_code": "L8H 2V4",
    "latitude": 43.2501753,
    "longitude": -79.8062979
  },
  {
    "restaurant_name": null,
    "address": "4205 Keele St Unit 6,",
    "city": "North York",
    "province": "ON",
    "postal_code": "M3J 3T8",
    "latitude": 43.7738302,
    "longitude": -79.4921291
  },
  {
    "restaurant_name": "Yong and Eglinton",
    "address": "2439 Yonge St",
    "city": "Toronto",
    "province": "ON",
    "postal_code": "M4P 2E7",
    "latitude": 43.7108207,
    "longitude": -79.3989789
  },
  {
    "restaurant_name": null,
    "address": "7600 Weston Road, Unit #45",
    "city": "Woodbridge",
    "province": "ON",
    "postal_code": "L4L 8B7",
    "latitude": 43.7875279,
    "longitude": -79.5485471
  },
  {
    "restaurant_name": null,
    "address": "870 Upper James St Unit #4",
    "city": "Hamilton",
    "province": "ON",
    "postal_code": "L9C3A4",
    "latitude": 43.2271276,
    "longitude": -79.8829833
  },
  {
    "restaurant_name": null,
    "address": "746 Victoria Park Ave,",
    "city": "Scarborough",
    "province": "ON",
    "postal_code": "M1R 1S1",
    "latitude": 43.7231761,
    "longitude": -79.3019677
  },
  {
    "restaurant_name": "Queen and Logan",
    "address": "861 Queen St E",
    "city": "Toronto",
    "province": "ON",
    "postal_code": "M4M 1J2",
    "latitude": 43.6602804,
    "longitude": -79.3429623
  },
  {
    "restaurant_name": null,
    "address": "2120 Rymal Rd E Unit K-4",
    "city": "Hamilton",
    "province": "ON",
    "postal_code": "L0R 1P0",
    "latitude": 43.1762389,
    "longitude": -79.7912958
  },
  {
    "restaurant_name": null,
    "address": "5 Mountainview Rd N",
    "city": "Georgetown",
    "province": "ON",
    "postal_code": "L7G 4T3",
    "latitude": 43.651232,
    "longitude": -79.9034838
  },
  {
    "restaurant_name": "Streetsville",
    "address": "251 Queen St S",
    "city": "Mississauga",
    "province": "ON",
    "postal_code": "L5M 1L7",
    "latitude": 43.5802048,
    "longitude": -79.711413
  },
  {
    "restaurant_name": null,
    "address": "459 Holland Steet West",
    "city": "Bradford",
    "province": "ON",
    "postal_code": "L3C 0C1",
    "latitude": 44.1098344,
    "longitude": -79.5861177
  },
  {
    "restaurant_name": "Yonge & Dundas",
    "address": "372 Yonge St",
    "city": "Toronto",
    "province": "ON",
    "postal_code": "M5G 2K9",
    "latitude": 43.6587182,
    "longitude": -79.382272
  },
  {
    "restaurant_name": null,
    "address": "1979 Weston Rd. Unit 1",
    "city": "Toronto",
    "province": "ON",
    "postal_code": "M9N 1W8",
    "latitude": 43.7012032,
    "longitude": -79.5189351
  },
  {
    "restaurant_name": null,
    "address": "5696 Baldwin St. South Unit 16A",
    "city": "Whitby",
    "province": "ON",
    "postal_code": "L1M 2J7",
    "latitude": 43.9513013,
    "longitude": -78.9619988
  },
  {
    "restaurant_name": "College & Augusta",
    "address": "351 College St",
    "city": "Toronto",
    "province": "ON",
    "postal_code": "M5T 1S5",
    "latitude": 43.6571496,
    "longitude": -79.4034036
  },
  {
    "restaurant_name": null,
    "address": "3-25 Stonebridge Rd",
    "city": "Wasaga Beach",
    "province": "ON",
    "postal_code": "L9Z 0C1",
    "latitude": 44.5242046,
    "longitude": -80.0085862
  },
  {
    "restaurant_name": null,
    "address": "800-840 Tower St South",
    "city": "Fergus",
    "province": "ON",
    "postal_code": "N1M 2R2",
    "latitude": 43.6978425,
    "longitude": -80.3688228
  },
  {
    "restaurant_name": null,
    "address": "11825 Bramalaea Rd. Unit 5",
    "city": "Brampton",
    "province": "ON",
    "postal_code": "L6R 3S9",
    "latitude": 43.7717108,
    "longitude": -79.7805723
  },
  {
    "restaurant_name": null,
    "address": "170 - 12477 88 Ave",
    "city": "Surrey",
    "province": "BC",
    "postal_code": "V3W1P8",
    "latitude": 49.1638275,
    "longitude": -122.8771381
  },
  {
    "restaurant_name": null,
    "address": "3065-111666 Stevenston Hwy",
    "city": "Richmond",
    "province": "BC",
    "postal_code": "V7A 1N6",
    "latitude": 49.1334989,
    "longitude": -123.0911393
  },
  {
    "restaurant_name": null,
    "address": "656 Gardiners Rd. Unit 20B",
    "city": "Kingston",
    "province": "ON",
    "postal_code": "K7N3X9",
    "latitude": 44.2461627,
    "longitude": -76.5665481
  },
  {
    "restaurant_name": null,
    "address": "1627 Saint Catherine St West",
    "city": "Montreal",
    "province": "QC",
    "postal_code": "H3H 1L8",
    "latitude": 45.4947875,
    "longitude": -73.5785533
  },
  {
    "restaurant_name": null,
    "address": "3210 Lakeshore Blvd West Unit A",
    "city": "Etobicoke",
    "province": "ON",
    "postal_code": "M8V 1L9",
    "latitude": 43.5974551,
    "longitude": -79.5209903
  },
  {
    "restaurant_name": null,
    "address": "2583 St Clair Av West Unit 2",
    "city": "Toronto",
    "province": "ON",
    "postal_code": "M6N 4Z5",
    "latitude": 43.6672462,
    "longitude": -79.4882923
  },
  {
    "restaurant_name": null,
    "address": "2215 Steeles Ave West Unit 7",
    "city": "North York",
    "province": "ON",
    "postal_code": "M3J 3N2",
    "latitude": 43.7853161,
    "longitude": -79.4774992
  },
  {
    "restaurant_name": null,
    "address": "115 - 12800 Bridgeport Rd",
    "city": "Richmond",
    "province": "BC",
    "postal_code": "V6V 0B4",
    "latitude": 49.1917092,
    "longitude": -123.0809694
  },
  {
    "restaurant_name": null,
    "address": "840 Wellington Road",
    "city": "London",
    "province": "ON",
    "postal_code": "N6E 1L9",
    "latitude": 42.9428699,
    "longitude": -81.2251917
  },
  {
    "restaurant_name": null,
    "address": "A-1 2788 Highway 50",
    "city": "Bolton",
    "province": "ON",
    "postal_code": "L7E 4G1",
    "latitude": 43.8080637,
    "longitude": -79.6721589
  },
  {
    "restaurant_name": null,
    "address": "420 Main Street Unit 4",
    "city": "Cambridge",
    "province": "ON",
    "postal_code": "N14 8N9",
    "latitude": 43.3578709,
    "longitude": -80.2910401
  },
  {
    "restaurant_name": null,
    "address": "339 Princess St",
    "city": "Kingston",
    "province": "ON",
    "postal_code": "K7L 1B7",
    "latitude": 44.2328612,
    "longitude": -76.4901142
  },
  {
    "restaurant_name": null,
    "address": "7 Rossland East",
    "city": "Ajax",
    "province": "ON",
    "postal_code": "L1Z 0T4",
    "latitude": 43.8801194,
    "longitude": -79.0239389
  },
  {
    "restaurant_name": null,
    "address": "8630 Woodbine Avenue Unit 5",
    "city": "Markham",
    "province": "ON",
    "postal_code": "L3R 4X8",
    "latitude": 43.8525769,
    "longitude": -79.3591312
  },
  {
    "restaurant_name": null,
    "address": "605 Unit B4 Rogers Rd",
    "city": "Toronto",
    "province": "ON",
    "postal_code": "M6M 1B9",
    "latitude": 43.681983,
    "longitude": -79.4732901
  },
  {
    "restaurant_name": null,
    "address": "790 Militarty Trail",
    "city": "Scarborough",
    "province": "ON",
    "postal_code": "M1E 4P7",
    "latitude": 43.790192,
    "longitude": -79.1953412
  },
  {
    "restaurant_name": null,
    "address": "1380 Lasalle Blvd Unit E2",
    "city": "Sudbury",
    "province": "ON",
    "postal_code": "P3A 3T9",
    "latitude": 46.5225247,
    "longitude": -80.9457628
  },
  {
    "restaurant_name": null,
    "address": "360 Caradoc Street",
    "city": "Strathroy",
    "province": "ON",
    "postal_code": "N7G 2P6",
    "latitude": 42.9467585,
    "longitude": -81.6133141
  },
  {
    "restaurant_name": null,
    "address": "1365 Woodroffe Avenue Unit C",
    "city": "Nepean",
    "province": "ON",
    "postal_code": "L3R 4X8",
    "latitude": 45.3502342,
    "longitude": -75.7590671
  },
  {
    "restaurant_name": null,
    "address": "347 Dalhousie St",
    "city": "Ottawa",
    "province": "ON",
    "postal_code": "K1N 7G1",
    "latitude": 45.4282415,
    "longitude": -75.6904049
  },
  {
    "restaurant_name": null,
    "address": "6640 Finch Ave West",
    "city": "Etobicoke",
    "province": "ON",
    "postal_code": "M9W 0B3",
    "latitude": 43.7339668,
    "longitude": -79.6046097
  },
  {
    "restaurant_name": null,
    "address": "188 Bell Blvd",
    "city": "Belleville",
    "province": "ON",
    "postal_code": "K8P 5L2",
    "latitude": 44.1866117,
    "longitude": -77.4048732
  },
  {
    "restaurant_name": null,
    "address": "2021 Green Rd Unit 107",
    "city": "Bowmanville",
    "province": "ON",
    "postal_code": "L1C 3K7",
    "latitude": 43.9119054,
    "longitude": -78.7125006
  },
  {
    "restaurant_name": null,
    "address": "1150 16th St E Unit C1",
    "city": "Owen Sound",
    "province": "ON",
    "postal_code": "N4K 0A2",
    "latitude": 44.574276,
    "longitude": -80.9237604
  },
  {
    "restaurant_name": null,
    "address": "2040 Algonquin Rd #13A",
    "city": "Sudbury",
    "province": "ON",
    "postal_code": "P3E 4Z6",
    "latitude": 46.4471749,
    "longitude": -80.9943578
  },
  {
    "restaurant_name": null,
    "address": "96 First St Unit 1B",
    "city": "Orangeville",
    "province": "ON",
    "postal_code": "L9W 2E8",
    "latitude": 43.9297039,
    "longitude": -80.1007937
  },
  {
    "restaurant_name": null,
    "address": "10 Balsam St Unit 2,",
    "city": "Collingwood",
    "province": "ON",
    "postal_code": "L9Y 3J4",
    "latitude": 44.5029745,
    "longitude": -80.2344555
  },
  {
    "restaurant_name": null,
    "address": "95 The Pond Rd Building C2",
    "city": "Toronto",
    "province": "ON",
    "postal_code": "M3J 0L1",
    "latitude": 43.7702042,
    "longitude": -79.500486
  },
  {
    "restaurant_name": null,
    "address": "1393 Harmony Rd N Unit M2",
    "city": "Oshawa",
    "province": "ON",
    "postal_code": "L1H 7K5",
    "latitude": 43.941041,
    "longitude": -78.8483462
  },
  {
    "restaurant_name": null,
    "address": "6981 Yonge St, North York, ON M2M 3X9",
    "city": "North York",
    "province": "ON",
    "postal_code": "M2M 3X9",
    "latitude": 43.7976451,
    "longitude": -79.4195649
  },
  {
    "restaurant_name": null,
    "address": "30 Diana Dr Building 4, Unit 1",
    "city": "Orillia",
    "province": "ON",
    "postal_code": "L3V 6H2",
    "latitude": 44.596656,
    "longitude": -79.4535448
  },
  {
    "restaurant_name": null,
    "address": "2539 Parkdale Ave, Unit A1B",
    "city": "Brockville",
    "province": "ON",
    "postal_code": "K6V 3H1",
    "latitude": 44.6013087,
    "longitude": -75.7025625
  },
  {
    "restaurant_name": null,
    "address": "1900 Simcoe St N Unit 103",
    "city": "Oshawa",
    "province": "ON",
    "postal_code": "L1G 4Y3",
    "latitude": 43.9434538,
    "longitude": -78.8906662
  },
  {
    "restaurant_name": "Living Arts Dr",
    "address": "4188 Living Arts Dr #4",
    "city": "Mississauga",
    "province": "ON",
    "postal_code": "L5B 0H7",
    "latitude": 43.589904,
    "longitude": -79.648142
  },
  {
    "restaurant_name": null,
    "address": "3050 Garden St Unit 123",
    "city": "Whitby",
    "province": "ON",
    "postal_code": "L1R 2G7",
    "latitude": 43.9011463,
    "longitude": -78.9422374
  },
  {
    "restaurant_name": null,
    "address": "19 Wyndham St N",
    "city": "Guelph",
    "province": "ON",
    "postal_code": "N1H 4E5",
    "latitude": 43.5451323,
    "longitude": -80.2481994
  },
  {
    "restaurant_name": null,
    "address": "35 Harvard Rd Unit 8",
    "city": "Guelph",
    "province": "ON",
    "postal_code": "N1G 3A2",
    "latitude": 43.5251245,
    "longitude": -80.2222844
  },
  {
    "restaurant_name": null,
    "address": "27 Harry Walker Pkwy Unit 3",
    "city": "Newmarket",
    "province": "ON",
    "postal_code": "L3Y 0G3",
    "latitude": 44.0662427,
    "longitude": -79.4255551
  },
  {
    "restaurant_name": null,
    "address": "285 Mill Street Unit C2",
    "city": "Angus",
    "province": "ON",
    "postal_code": "L0M 1B4",
    "latitude": 44.3321387,
    "longitude": -79.8868081
  },
  {
    "restaurant_name": null,
    "address": "863 Red River Rd #5",
    "city": "Thunder Bay",
    "province": "ON",
    "postal_code": "P7B 1K3",
    "latitude": 48.446189,
    "longitude": -89.2493419
  },
  {
    "restaurant_name": null,
    "address": "1315-F, Second St E",
    "city": "Cornwall",
    "province": "ON",
    "postal_code": "K6H 7C4",
    "latitude": 45.0246342,
    "longitude": -74.7052348
  },
  {
    "restaurant_name": null,
    "address": "100 Bayshore Dr Unit FH6",
    "city": "Nepean",
    "province": "ON",
    "postal_code": "K2B 8C1",
    "latitude": 45.3482612,
    "longitude": -75.8050948
  },
  {
    "restaurant_name": null,
    "address": "36 Young St",
    "city": "Alliston",
    "province": "ON",
    "postal_code": "L9R 1B4",
    "latitude": 44.1485831,
    "longitude": -79.8829027
  },
  {
    "restaurant_name": null,
    "address": "75 Billy Bishop Way Unit A1",
    "city": "North York",
    "province": "ON",
    "postal_code": "M3K 2C8",
    "latitude": 43.7332699,
    "longitude": -79.4514346
  },
  {
    "restaurant_name": null,
    "address": "140 Hamilton, Regional Rd 8 unit 10A,",
    "city": "Stoney Creek",
    "province": "ON",
    "postal_code": "L8G 1C2",
    "latitude": 43.2231904,
    "longitude": -79.7456587
  },
  {
    "restaurant_name": null,
    "address": "1472 Innisfil Beach Rd,",
    "city": "Innisfil",
    "province": "ON",
    "postal_code": "L9S 4B2",
    "latitude": 44.3087915,
    "longitude": -79.5746543
  },
  {
    "restaurant_name": null,
    "address": "109 - 595 Arthur St West",
    "city": "Thunder Bay",
    "province": "ON",
    "postal_code": "P7E 5R5",
    "latitude": 48.3816115,
    "longitude": -89.2940311
  },
  {
    "restaurant_name": null,
    "address": "25 Brisdale Dr #3",
    "city": "Brampton",
    "province": "ON",
    "postal_code": "L7A 2G8",
    "latitude": 43.68429,
    "longitude": -79.81294
  },
  {
    "restaurant_name": null,
    "address": "5027 - 44th St, Unit 109G",
    "city": "Lloydminster",
    "province": "AB",
    "postal_code": "T9V 0A6",
    "latitude": 53.277683,
    "longitude": -110.0077668
  },
  {
    "restaurant_name": "Clarkson",
    "address": "960 Southdown Rd",
    "city": "Mississauga",
    "province": "ON",
    "postal_code": "L5J 2Y4",
    "latitude": 43.5093434,
    "longitude": -79.6312353
  },
  {
    "restaurant_name": null,
    "address": "2277 Sheppard Ave West",
    "city": "North York",
    "province": "ON",
    "postal_code": "M9M 0G6",
    "latitude": 43.7346883,
    "longitude": -79.5326377
  },
  {
    "restaurant_name": "Hays Blvd",
    "address": "270 Hays Blvd.",
    "city": "Oakville",
    "province": "ON",
    "postal_code": "L6H 7P3",
    "latitude": 43.4842973,
    "longitude": -79.7174202
  },
  {
    "restaurant_name": null,
    "address": "555 Esaa Rd",
    "city": "Barrie",
    "province": "ON",
    "postal_code": "L4N 6V9",
    "latitude": 44.338832,
    "longitude": -79.7106831
  },
  {
    "restaurant_name": null,
    "address": "494 Big Bay Point Rd",
    "city": "Barrie",
    "province": "ON",
    "postal_code": "L4N 3Z5",
    "latitude": 44.3574869,
    "longitude": -79.6479636
  },
  {
    "restaurant_name": null,
    "address": "225 Fairview Drive",
    "city": "Brantford",
    "province": "ON",
    "postal_code": "N3R 7E3",
    "latitude": 43.1706468,
    "longitude": -80.2623037
  },
  {
    "restaurant_name": null,
    "address": "3221 Derry Road West",
    "city": "Mississauga",
    "province": "ON",
    "postal_code": "L5N 7L7",
    "latitude": 43.5839941,
    "longitude": -79.778028
  },
  {
    "restaurant_name": null,
    "address": "275 Fourth St",
    "city": "St. Catherines",
    "province": "ON",
    "postal_code": "L2S 0C2",
    "latitude": 43.1563946,
    "longitude": -79.2679549
  },
  {
    "restaurant_name": null,
    "address": "900 Maple Ave. Unit F8",
    "city": "Burlington",
    "province": "ON",
    "postal_code": "L7S 2J8",
    "latitude": 43.325572,
    "longitude": -79.8204273
  },
  {
    "restaurant_name": null,
    "address": "547 Cundles Rd E,",
    "city": "Barrie",
    "province": "ON",
    "postal_code": "L4M 0G9",
    "latitude": 44.4148848,
    "longitude": -79.6780334
  },
  {
    "restaurant_name": null,
    "address": "2435 Appleby Line",
    "city": "Burlington",
    "province": "ON",
    "postal_code": "L7R 3X4",
    "latitude": 43.4059263,
    "longitude": -79.8063672
  },
  {
    "restaurant_name": null,
    "address": "355 Hespeler Rd,",
    "city": "Cambridge",
    "province": "ON",
    "postal_code": "N1R 6B3",
    "latitude": 43.3920911,
    "longitude": -80.3209162
  },
  {
    "restaurant_name": null,
    "address": "8750 Bayview Ave,",
    "city": "Richmond Hill",
    "province": "ON",
    "postal_code": "L4B 4V9",
    "latitude": 43.8437567,
    "longitude": -79.4083204
  },
  {
    "restaurant_name": null,
    "address": "2161 Wyandotte St W,",
    "city": "Windsor",
    "province": "ON",
    "postal_code": "N9B 1K",
    "latitude": 42.3056644,
    "longitude": -83.0604213
  },
  {
    "restaurant_name": null,
    "address": "4850 Dundas St W",
    "city": "Etobicoke",
    "province": "ON",
    "postal_code": "M9A 1B4",
    "latitude": 43.6507176,
    "longitude": -79.5274136
  },
  {
    "restaurant_name": "Wyecroft Rr",
    "address": "3513 Wyecroft Rd H007",
    "city": "Oakville",
    "province": "ON",
    "postal_code": "L6L 0B6",
    "latitude": 43.395563,
    "longitude": -79.7490761
  },
  {
    "restaurant_name": null,
    "address": "43 Crowfoot Terrace NW Unit 43",
    "city": "Calgary",
    "province": "AB",
    "postal_code": "T3G 4J8",
    "latitude": 51.1269923,
    "longitude": -114.2005235
  },
  {
    "restaurant_name": null,
    "address": "76 Arlington Drive Unit 9",
    "city": "Keswick",
    "province": "ON",
    "postal_code": "L4P 4H6",
    "latitude": 44.2343982,
    "longitude": -79.4510176
  },
  {
    "restaurant_name": null,
    "address": "1447 Water St Unit 2&3,",
    "city": "Peterborough",
    "province": "ON",
    "postal_code": "K9H 0C6",
    "latitude": 44.3511762,
    "longitude": -78.3013543
  },
  {
    "restaurant_name": null,
    "address": "547 Norwich Ave Unit #3",
    "city": "Woodstock",
    "province": "ON",
    "postal_code": "N4V 1C7",
    "latitude": 43.1131324,
    "longitude": -80.735527
  },
  {
    "restaurant_name": null,
    "address": "275 Shawville Blvd SE Unit 11,",
    "city": "Calgary",
    "province": "AB",
    "postal_code": "T2Y 3Z6",
    "latitude": 50.9016378,
    "longitude": -114.0678845
  },
  {
    "restaurant_name": null,
    "address": "210 King St N,",
    "city": "Waterloo",
    "province": "ON",
    "postal_code": "N2J 2Y7",
    "latitude": 43.4750026,
    "longitude": -80.5242017
  },
  {
    "restaurant_name": null,
    "address": "628 King St N,",
    "city": "Waterloo",
    "province": "ON",
    "postal_code": "N2V 1B4",
    "latitude": 43.5050237,
    "longitude": -80.5357236
  },
  {
    "restaurant_name": null,
    "address": "820 Kingston Rd,",
    "city": "Pickering",
    "province": "ON",
    "postal_code": "L1V 1A9",
    "latitude": 43.8228646,
    "longitude": -79.1114336
  },
  {
    "restaurant_name": null,
    "address": "7555 Tecumseh Rd E",
    "city": "Windsor",
    "province": "ON",
    "postal_code": "N8T 1G2",
    "latitude": 42.3130317,
    "longitude": -82.9354429
  },
  {
    "restaurant_name": "Aurora",
    "address": "126 Wellington",
    "city": "Aurora",
    "province": "ON",
    "postal_code": "L4G 2N9",
    "latitude": 43.9986441,
    "longitude": -79.4752794
  },
  {
    "restaurant_name": null,
    "address": "1500 Elgin Mills Rd E Unit 1",
    "city": "Richmond Hill",
    "province": "ON",
    "postal_code": "L4S 1M5",
    "latitude": 43.899143,
    "longitude": -79.3949773
  },
  {
    "restaurant_name": "Kingsway Mall",
    "address": "1 Kingsway NW #413 Main floor,",
    "city": "Edmonton",
    "province": "AB",
    "postal_code": "T5G 3A6",
    "latitude": 53.5628833,
    "longitude": -113.5061502
  },
  {
    "restaurant_name": null,
    "address": "2620 Rutherford Rd,",
    "city": "Vaughan",
    "province": "ON",
    "postal_code": "L4K 0H1",
    "latitude": 43.8347994,
    "longitude": -79.5211806
  },
  {
    "restaurant_name": null,
    "address": "3604 Major MacKenzie Dr W Unit 10",
    "city": "Vaughan",
    "province": "ON",
    "postal_code": "L4H 3T6",
    "latitude": 43.8464492,
    "longitude": -79.5563395
  },
  {
    "restaurant_name": null,
    "address": "2460 Brock Rd Unit 4",
    "city": "Pickering",
    "province": "ON",
    "postal_code": "L1X 2R2",
    "latitude": 43.8702287,
    "longitude": -79.0843698
  },
  {
    "restaurant_name": null,
    "address": "10009 17th St. NW",
    "city": "Edmonton",
    "province": "AB",
    "postal_code": "T5P 4R5",
    "latitude": 53.5161819,
    "longitude": -113.368995
  },
  {
    "restaurant_name": null,
    "address": "1187 Wilson St W Unit 1A",
    "city": "Ancaster",
    "province": "ON",
    "postal_code": "L9G 0E8",
    "latitude": 43.1979044,
    "longitude": -80.0216242
  },
  {
    "restaurant_name": null,
    "address": "400 Scott St",
    "city": "St. Catherines",
    "province": "ON",
    "postal_code": "L2N 6T4",
    "latitude": 43.1874642,
    "longitude": -79.2297278
  },
  {
    "restaurant_name": "University District",
    "address": "4129 University",
    "city": "Calgary",
    "province": "AB",
    "postal_code": "T3B 6K3",
    "latitude": 51.0772188,
    "longitude": -114.1472096
  },
  {
    "restaurant_name": null,
    "address": "80 Dundas St E Unit 8,",
    "city": "Waterdown",
    "province": "ON",
    "postal_code": "L9H 7K6",
    "latitude": 43.317241,
    "longitude": -79.9108463
  },
  {
    "restaurant_name": null,
    "address": "1055 Talbot St",
    "city": "St Thomas",
    "province": "ON",
    "postal_code": "N5P1G5",
    "latitude": 42.7799652,
    "longitude": -81.1734403
  },
  {
    "restaurant_name": null,
    "address": "119 Osler Dr",
    "city": "Hamilton",
    "province": "ON",
    "postal_code": "L9H 6X4",
    "latitude": 43.2571822,
    "longitude": -79.9411556
  },
  {
    "restaurant_name": null,
    "address": "5934 Victoria Ave",
    "city": "Niagara Falls",
    "province": "ON",
    "postal_code": "L2G 3W4",
    "latitude": 43.0901802,
    "longitude": -79.0789584
  },
  {
    "restaurant_name": null,
    "address": "200 Green Ln E",
    "city": "East Gwillimbury",
    "province": "ON",
    "postal_code": "L9N 0A2",
    "latitude": 44.0744235,
    "longitude": -79.4802537
  },
  {
    "restaurant_name": null,
    "address": "9833 116 St #106",
    "city": "Grande Prairie",
    "province": "AB",
    "postal_code": "T8W 0C7",
    "latitude": 55.1681932,
    "longitude": -118.8470587
  },
  {
    "restaurant_name": null,
    "address": "332 Clarke Rd",
    "city": "London",
    "province": "ON",
    "postal_code": "N6A 3H3",
    "latitude": 43.0018043,
    "longitude": -81.1740812
  },
  {
    "restaurant_name": null,
    "address": "1612 Mayor Magrath Dr S",
    "city": "Lethbridge",
    "province": "AB",
    "postal_code": "T1K 2R5",
    "latitude": 49.6754406,
    "longitude": -112.8025638
  },
  {
    "restaurant_name": null,
    "address": "4501 17 Ave SE Unit 310",
    "city": "Calgary",
    "province": "AB",
    "postal_code": "T2A 0T7",
    "latitude": 51.0376011,
    "longitude": -113.969071
  },
  {
    "restaurant_name": null,
    "address": "1820 Strachan Rd SE Unit 102",
    "city": "Medicine Hat",
    "province": "AB",
    "postal_code": "T1B 4R7",
    "latitude": 49.9996367,
    "longitude": -110.6495037
  },
  {
    "restaurant_name": null,
    "address": "2 Douglas Rd Unit A30, Uxbridge, ON L9P 1S9",
    "city": "Uxbridge",
    "province": "ON",
    "postal_code": "L9P 1S9",
    "latitude": 44.0918827,
    "longitude": -79.1318995
  },
  {
    "restaurant_name": null,
    "address": "5777 Main St #103, ON L4A 2S9",
    "city": "Stouffville",
    "province": "ON",
    "postal_code": "L4A 2S9",
    "latitude": 43.9670888,
    "longitude": -79.2643871
  },
  {
    "restaurant_name": null,
    "address": "9750 Markham Rd",
    "city": "Markham",
    "province": "ON",
    "postal_code": "L6E 0H8",
    "latitude": 43.9032275,
    "longitude": -79.2674244
  },
  {
    "restaurant_name": null,
    "address": "1604 Mont-Royal Ave E,",
    "city": "Montreal",
    "province": "QC",
    "postal_code": "H2J 1Z2",
    "latitude": 45.5320527,
    "longitude": -73.5752415
  },
  {
    "restaurant_name": null,
    "address": "351 Argyle St S unit 4, Caledonia",
    "city": "Caledonia",
    "province": "ON",
    "postal_code": "N3W 1K7",
    "latitude": 43.0624783,
    "longitude": -79.9620158
  },
  {
    "restaurant_name": null,
    "address": "5261 Hwy 7 B102",
    "city": "Markham",
    "province": "ON",
    "postal_code": "L3P 1B8",
    "latitude": 43.8669516,
    "longitude": -79.2837969
  },
  {
    "restaurant_name": null,
    "address": "1780 Markham Road Unit 0110",
    "city": "Scarborough",
    "province": "ON",
    "postal_code": "M1B 2W2",
    "latitude": 43.795045,
    "longitude": -79.2409299
  },
  {
    "restaurant_name": null,
    "address": "248 Northern Ave",
    "city": "Sault Ste Marie",
    "province": "ON",
    "postal_code": "P6B 4H6",
    "latitude": 46.535214,
    "longitude": -84.3222879
  },
  {
    "restaurant_name": null,
    "address": "1 William Kitchen Rd",
    "city": "Scarborough",
    "province": "ON",
    "postal_code": "M1P 5B7",
    "latitude": 43.770712,
    "longitude": -79.2782577
  },
  {
    "restaurant_name": null,
    "address": "800 Yonge St",
    "city": "Midland",
    "province": "ON",
    "postal_code": "L4R 2E7",
    "latitude": 44.7418432,
    "longitude": -79.8957016
  },
  {
    "restaurant_name": null,
    "address": "1270 Fischer Hallman Road",
    "city": "Kitchener",
    "province": "ON",
    "postal_code": "N2R 1P6",
    "latitude": 43.4003629,
    "longitude": -80.4956931
  },
  {
    "restaurant_name": null,
    "address": "800 Emerald",
    "city": "Sherwood Park",
    "province": "AB",
    "postal_code": "T8H 0P1",
    "latitude": 53.5675975,
    "longitude": -113.2855851
  },
  {
    "restaurant_name": null,
    "address": "17 Hanes",
    "city": "Huntsville",
    "province": "ON",
    "postal_code": "P1H 1L8",
    "latitude": 45.3391169,
    "longitude": -79.2206389
  },
  {
    "restaurant_name": null,
    "address": "922 Erb St W",
    "city": "Waterloo",
    "province": "ON",
    "postal_code": "N2J 3Z4",
    "latitude": 43.4439361,
    "longitude": -80.5796425
  },
  {
    "restaurant_name": null,
    "address": "9737 Macleod Trail-Calgary",
    "city": "Calgary",
    "province": "AB",
    "postal_code": "T2J 0P6",
    "latitude": 50.967141,
    "longitude": -114.072532
  },
  {
    "restaurant_name": null,
    "address": "241 Trade Valley",
    "city": "Vaughan",
    "province": "ON",
    "postal_code": "L4H 3N6",
    "latitude": 43.7921282,
    "longitude": -79.662013
  },
  {
    "restaurant_name": null,
    "address": "1573 Regent",
    "city": "Winnipeg",
    "province": "MB",
    "postal_code": "N3W 1K7",
    "latitude": 49.8982265,
    "longitude": -97.0657531
  },
  {
    "restaurant_name": null,
    "address": "385 Garrison Rd",
    "city": "Fort Erie",
    "province": "ON",
    "postal_code": "L2A 1N1",
    "latitude": 42.905031,
    "longitude": -78.9294608
  },
  {
    "restaurant_name": null,
    "address": "17477 Highway 2",
    "city": "Trenton",
    "province": "ON",
    "postal_code": "K8V 0N7",
    "latitude": 44.0932469,
    "longitude": -77.6011393
  },
  {
    "restaurant_name": null,
    "address": "1044 Goderich",
    "city": "Port Elgin",
    "province": "ON",
    "postal_code": "N0H 2C3",
    "latitude": 44.4476674,
    "longitude": -81.3804922
  },
  {
    "restaurant_name": null,
    "address": "24- Iber Rd, Unit D-3",
    "city": "Ottawa",
    "province": "ON",
    "postal_code": "K2S 1T1",
    "latitude": 45.28135,
    "longitude": -75.91128
  },
  {
    "restaurant_name": null,
    "address": "1070 Rest Acres",
    "city": "Paris",
    "province": "ON",
    "postal_code": "N3L 0B5",
    "latitude": 43.1774871,
    "longitude": -80.3839527
  },
  {
    "restaurant_name": null,
    "address": "911 Fort William Rd",
    "city": "Thunder Bay",
    "province": "ON",
    "postal_code": "P7B 3A6",
    "latitude": 48.4042517,
    "longitude": -89.2396491
  },
  {
    "restaurant_name": null,
    "address": "515 Grand Ave",
    "city": "Chatam",
    "province": "ON",
    "postal_code": "N7L 1C5",
    "latitude": 42.4003364,
    "longitude": -82.2078181
  },
  {
    "restaurant_name": null,
    "address": "1025 Elgin",
    "city": "Cobourg",
    "province": "ON",
    "postal_code": "K9A 5W4",
    "latitude": 43.9705398,
    "longitude": -78.1964322
  },
  {
    "restaurant_name": null,
    "address": "201 Chainlake Dr",
    "city": "Halifax",
    "province": "ON",
    "postal_code": "B3C 1C8",
    "latitude": 44.6488228,
    "longitude": -63.6770553
  },
  {
    "restaurant_name": null,
    "address": "6061 Young St, Unit 1C",
    "city": "Halifax",
    "province": "ON",
    "postal_code": null,
    "latitude": 44.658966,
    "longitude": -63.6048693
  },
  {
    "restaurant_name": null,
    "address": "7100 Langelier Boulevard",
    "city": "Montreal",
    "province": "QC",
    "postal_code": "H1S 2X6",
    "latitude": 45.589184,
    "longitude": -73.5686297
  },
  {
    "restaurant_name": "Oshawa King St",
    "address": "1323 King St E",
    "city": "Oshawa",
    "province": "ON",
    "postal_code": "L1H 1J3",
    "latitude": 43.906051,
    "longitude": -78.8145232
  },
  {
    "restaurant_name": null,
    "address": "863 Red River",
    "city": "Thunder Bay",
    "province": "ON",
    "postal_code": "P7B 1K3",
    "latitude": 48.4461791,
    "longitude": -89.2493855
  },
  {
    "restaurant_name": null,
    "address": "750 Richmond St, Unit 2",
    "city": "London",
    "province": "ON",
    "postal_code": "N6A 3H3",
    "latitude": 42.9953889,
    "longitude": -81.2527222
  },
  {
    "restaurant_name": "Masonville Mall",
    "address": "1680 Richmond St,Unit L049",
    "city": "London",
    "province": "ON",
    "postal_code": "N6G 3Y9",
    "latitude": 43.025599,
    "longitude": -81.2783801
  },
  {
    "restaurant_name": null,
    "address": "343 Glendale Ave St,  Unit 105",
    "city": "St. Catherines",
    "province": "ON",
    "postal_code": "L2T 0A1",
    "latitude": 43.1376689,
    "longitude": -79.2163887
  },
  {
    "restaurant_name": null,
    "address": "655 Fairway Rd",
    "city": "Kitchener",
    "province": "ON",
    "postal_code": "N2C 1X4",
    "latitude": 43.4189244,
    "longitude": -80.4501331
  },
  {
    "restaurant_name": "25 Brisdale - Brampton",
    "address": "25 Brisdale Rd, Unit 3,Brampton",
    "city": "Brampton",
    "province": "ON",
    "postal_code": "L7A 2G8",
    "latitude": 43.68429,
    "longitude": -79.81294
  },
  {
    "restaurant_name": "Riverbend Square",
    "address": "468 Riverbend - Edmonton",
    "city": "Edmonton",
    "province": "AB",
    "postal_code": null,
    "latitude": null,
    "longitude": null
  },
  {
    "restaurant_name": "T6R 2X2 ,53.4684447,-113.5833328",
    "address": null,
    "city": null,
    "province": null,
    "postal_code": null,
    "latitude": null,
    "longitude": null
  },
  {
    "restaurant_name": "Manning Drive",
    "address": "3630 - 153 Avenue NW. Edmonton",
    "city": "Edmonton",
    "province": "AB",
    "postal_code": "T5Y 0S4",
    "latitude": 53.6148437,
    "longitude": -113.3988818
  },
  {
    "restaurant_name": "Canterra",
    "address": "10196-109 Street",
    "city": "Edmonton",
    "province": "AB",
    "postal_code": "T5J 1M9",
    "latitude": 53.541637,
    "longitude": -113.508915
  },
  {
    "restaurant_name": "Walker Rd",
    "address": "4140 Walker Rd",
    "city": "Windsor",
    "province": "ON",
    "postal_code": "N8W 3T5",
    "latitude": 42.2592941,
    "longitude": -82.9659057
  },
  {
    "restaurant_name": "Penticton",
    "address": "702 Main Street",
    "city": "Penticton",
    "province": "BC",
    "postal_code": "V2A 5E2",
    "latitude": 49.4928716,
    "longitude": -119.5890192
  },
  {
    "restaurant_name": "431 Kent St",
    "address": "431 Kent St. W. Unit 3",
    "city": "Lindsay",
    "province": "ON",
    "postal_code": "K9V 6L6",
    "latitude": 44.3488055,
    "longitude": -78.7631524
  },
  {
    "restaurant_name": "1180 Smyth St",
    "address": "1180 Smythe St",
    "city": "Fredericton",
    "province": "NB",
    "postal_code": "E3B 3H5",
    "latitude": 45.9430388,
    "longitude": -66.6687867
  },
  {
    "restaurant_name": "Chelmsford",
    "address": "4764 Regional Rd. 15",
    "city": "Chelmsford",
    "province": "ON",
    "postal_code": "P0M 1L0",
    "latitude": 46.5694103,
    "longitude": -81.185363
  },
  {
    "restaurant_name": "Stratford",
    "address": "1067 Ontario St.",
    "city": "Stratford",
    "province": "ON",
    "postal_code": "N5A 6W6",
    "latitude": 43.3703143,
    "longitude": -80.9457198
  },
  {
    "restaurant_name": "Red Deer",
    "address": "499 Timberlands Dr., #7101",
    "city": "Red Deer",
    "province": "AB",
    "postal_code": "T4P 0Z3",
    "latitude": 52.28341,
    "longitude": -113.76577
  },
  {
    "restaurant_name": "Westerminster",
    "address": "408 E. Columbia St.",
    "city": "Westminster",
    "province": "BC",
    "postal_code": "V3L 3X1",
    "latitude": 49.2284676,
    "longitude": -122.8926214
  },
  {
    "restaurant_name": "Cambrian Heights",
    "address": "965 Cambrian Heights Unit #105",
    "city": "Sudbury",
    "province": "ON",
    "postal_code": "P3C 5M6",
    "latitude": 46.5152642,
    "longitude": -80.9863151
  },
  {
    "restaurant_name": "Eversquare Edmonton",
    "address": "Unit 104, 4632 Gateway Boulevard NW",
    "city": "Edmonton",
    "province": "AB",
    "postal_code": "T6H 6A1",
    "latitude": 53.4848029,
    "longitude": -113.4929105
  },
  {
    "restaurant_name": "Discovery Way",
    "address": "Unit #2 , 5209 discovery way.",
    "city": "Leduc",
    "province": "AB",
    "postal_code": "T9E 8N4",
    "latitude": 53.2657025,
    "longitude": -113.5695902
  },
  {
    "restaurant_name": "U of Alberta",
    "address": "8506 112 St. NW",
    "city": "Edmonton",
    "province": "AB",
    "postal_code": "T6G 2L7",
    "latitude": 53.5210277,
    "longitude": -113.5208819
  },
  {
    "restaurant_name": "Kingston Rd - Toronto",
    "address": "3025 Kingston Rd, Unit A01012A",
    "city": "Scarborough",
    "province": "ON",
    "postal_code": "M1M 1P1",
    "latitude": 43.7258184,
    "longitude": -79.2304587
  },
  {
    "restaurant_name": "Saint Johns - Consumers",
    "address": "Unit D0002B , 70 Consumers Dr",
    "city": "Saint John",
    "province": "NB",
    "postal_code": "E2J 4Z3",
    "latitude": 45.3061829,
    "longitude": -66.0198915
  },
  {
    "restaurant_name": "Tillsonburg",
    "address": "Unit #9, 671 Broadway St",
    "city": "Tillsonburg",
    "province": "ON",
    "postal_code": "N4G 3T1",
    "latitude": 42.881367,
    "longitude": -80.750071
  },
  {
    "restaurant_name": "Arnprior",
    "address": "245 Daniel Street South, Building 2 Unit 3",
    "city": "Arnprior",
    "province": "ON",
    "postal_code": "K7S 3K5",
    "latitude": 45.4259284,
    "longitude": -76.3651986
  },
  {
    "restaurant_name": null,
    "address": null,
    "city": "Miami",
    "province": "FL",
    "postal_code": null,
    "latitude": 25.7616798,
    "longitude": -80.1917902
  }
]